SAUDISAT 1C (SO-50)     
1 27607U 02058C   26068.61742404  .00002222  00000+0  27919-3 0  9995
2 27607  64.5524  76.9957 0075248 280.7497  78.5144 14.82783142249695
STARLINK-36263          
1 67202U 25304L   26068.29534749  .00022821  00000+0  19147-2 0  9994
2 67202  70.0012 175.5312 0003541 267.9987  92.0766 14.98319080 13821
